0 IRIDIUM 33 DEB
1 34866U 97051ML  13281.82730023  .00020406  00000-0  39353-2 0  5846
2 34866 086.3359 106.5691 0021400 080.0939 280.2687 14.63250328239716
0 IRIDIUM 33 DEB
1 34866U 97051ML  13282.78467187  .00026055  00000-0  50137-2 0  5850
2 34866 086.3360 106.1428 0021344 076.9407 283.4186 14.63323207239854
0 IRIDIUM 33 DEB
1 34866U 97051ML  13283.81038519  .00032417  00000-0  62282-2 0  5873
2 34866 086.3360 105.6866 0021257 073.7191 286.6357 14.63360537240003
0 IRIDIUM 33 DEB
1 34866U 97051ML  13283.81041376  .00018960  00000-0  36638-2 0  5860
2 34866 086.3366 105.6784 0021739 074.0998 286.3102 14.63337299233121
0 IRIDIUM 33 DEB
1 34866U 97051ML  13287.22913450  .00022924  00000-0  43939-2 0  5889
2 34866 086.3360 104.1636 0021236 062.0259 297.9219 14.63517879240516
0 IRIDIUM 33 DEB
1 34866U 97051ML  13288.80173601  .00035052  00000-0  66966-2 0  5892
2 34866 086.3349 103.4615 0020878 053.1013 307.2108 14.63605809240740
0 IRIDIUM 33 DEB
1 34866U 97051ML  13289.75887698  .00038847  00000-0  74088-2 0  5906
2 34866 086.3353 103.0349 0021311 053.1765 307.1398 14.63654385240880
0 IRIDIUM 33 DEB
1 34866U 97051ML  13290.78434802  .00029823  00000-0  56868-2 0  5917
2 34866 086.3346 102.5779 0021111 050.1129 310.1935 14.63716755241020
0 IRIDIUM 33 DEB
1 34866U 97051ML  13292.76681249  .00030938  00000-0  58855-2 0  5924
2 34866 086.3352 101.6955 0020971 043.2958 316.9898 14.63819229241313
0 IRIDIUM 33 DEB
1 34866U 97051ML  13295.15924815  .00036106  00000-0  68452-2 0  5937
2 34866 086.3376 100.6316 0021005 035.2286 325.0309 14.63943273241666
